{
"type": "FeatureCollection",
"name": "2",
"crs": { "type": "name", "properties": { "name": "urn:ogc:def:crs:OGC:1.3:CRS84" } },
"features": [
{ "type": "Feature", "properties": { "名稱": "1號丁壩" }, "geometry": { "type": "Polygon", "coordinates": [ [ [ 120.44520874011593, 22.688160784685827 ], [ 120.445107717829032, 22.687983205217968 ], [ 120.445627846723937, 22.687708765348802 ], [ 120.44572455410642, 22.687883884122463 ], [ 120.44520874011593, 22.688160784685827 ] ] ] } },
{ "type": "Feature", "properties": { "名稱": "2號丁壩" }, "geometry": { "type": "Polygon", "coordinates": [ [ [ 120.447449680446553, 22.690467533614509 ], [ 120.447695663326414, 22.690398198496812 ], [ 120.448502598665982, 22.6901501251109 ], [ 120.448431521459895, 22.689957798553277 ], [ 120.447613436754679, 22.690201690927076 ], [ 120.44737233172232, 22.690275903892243 ], [ 120.447449680446553, 22.690467533614509 ] ] ] } },
{ "type": "Feature", "properties": { "名稱": "3號丁壩" }, "geometry": { "type": "Polygon", "coordinates": [ [ [ 120.449258316607072, 22.692653331910204 ], [ 120.449205008702506, 22.692459960099555 ], [ 120.450361058554307, 22.69224812215203 ], [ 120.450427257912878, 22.692422330990453 ], [ 120.449258316607072, 22.692653331910204 ] ] ] } },
{ "type": "Feature", "properties": { "名稱": "4號丁壩" }, "geometry": { "type": "Polygon", "coordinates": [ [ [ 120.456121796423247, 22.696752291669444 ], [ 120.456166393885894, 22.696568327136067 ], [ 120.454304449820825, 22.69629516767743 ], [ 120.452699202479124, 22.694860122370912 ], [ 120.449981849470859, 22.694374972534717 ], [ 120.449954411573842, 22.694582716572061 ], [ 120.452615843549935, 22.695041735084967 ], [ 120.454223616919791, 22.696476344869396 ], [ 120.456121796423247, 22.696752291669444 ] ] ] } },
{ "type": "Feature", "properties": { "名稱": "5號丁壩" }, "geometry": { "type": "Polygon", "coordinates": [ [ [ 120.457093968845982, 22.698225053189425 ], [ 120.457123235930837, 22.698024364607566 ], [ 120.455709008580513, 22.697937608606022 ], [ 120.455724687375977, 22.698137251934853 ], [ 120.457093968845982, 22.698225053189425 ] ] ] } },
{ "type": "Feature", "properties": { "名稱": "6號丁壩" }, "geometry": { "type": "Polygon", "coordinates": [ [ [ 120.459270121934409, 22.70167906154575 ], [ 120.459254439656178, 22.701503942772092 ], [ 120.458182817309904, 22.701616332432796 ], [ 120.457547685041291, 22.701592809015445 ], [ 120.456774025981545, 22.701187683494297 ], [ 120.453543476664564, 22.698312599150697 ], [ 120.45339710873435, 22.698443284802678 ], [ 120.456695614590387, 22.701354961128843 ], [ 120.4575215479109, 22.701747018084788 ], [ 120.458216795579446, 22.701778382641265 ], [ 120.459270121934409, 22.70167906154575 ] ] ] } }
]
}