{
"type": "FeatureCollection",
"crs": { "type": "name", "properties": { "name": "urn:ogc:def:crs:OGC:1.3:CRS84" } },
"features": [
{ "type": "Feature", "properties": { "BASIN_ID": 1680, "BASIN_NAME": "典寶溪排水" }, "geometry": { "type": "Polygon", "coordinates": [ [ [ 120.245884857234273, 22.760089595739334 ], [ 120.276688648734208, 22.784391899844238 ], [ 120.334078223451556, 22.769821298680924 ], [ 120.38939231678053, 22.785629612613281 ], [ 120.412712425204703, 22.808659794334257 ], [ 120.433481484534738, 22.786431078464211 ], [ 120.411554842993482, 22.758499172894364 ], [ 120.410189869010807, 22.759517179276209 ], [ 120.401327227621181, 22.766126994268379 ], [ 120.368970409312141, 22.732017264301362 ], [ 120.315166816885466, 22.749554818118924 ], [ 120.259809691772233, 22.722248000949509 ], [ 120.245884857234273, 22.760089595739334 ] ] ] } },
{ "type": "Feature", "properties": { "BASIN_ID": 1400, "BASIN_NAME": "大安溪" }, "geometry": { "type": "Polygon", "coordinates": [ [ [ 120.601058409574378, 24.39598934503714 ], [ 120.613099246413441, 24.413356867080527 ], [ 120.717638209525646, 24.368644169451574 ], [ 120.827759501125499, 24.380759857799109 ], [ 120.861566794945446, 24.359135511237042 ], [ 120.931281628748337, 24.374001252346048 ], [ 121.000454991268839, 24.410806545078604 ], [ 121.053248956934581, 24.504025097441847 ], [ 121.071228992041242, 24.503856069269649 ], [ 121.070813665307185, 24.499186721633976 ], [ 121.203148298889445, 24.515549396919138 ], [ 121.258074378950326, 24.459064111580719 ], [ 121.258009547903512, 24.427216675512447 ], [ 120.969804762647087, 24.240649618925737 ], [ 120.714384159843533, 24.327249742166867 ], [ 120.648497221170061, 24.358280343332648 ], [ 120.601058409574378, 24.39598934503714 ] ] ] } },
{ "type": "Feature", "properties": { "BASIN_ID": 1140, "BASIN_NAME": "淡水河" }, "geometry": { "type": "Polygon", "coordinates": [ [ [ 121.203148298889445, 24.515549396919138 ], [ 121.202344060745048, 24.516376465244711 ], [ 121.199094008095315, 24.580250250709934 ], [ 121.251155012871578, 24.628712757841178 ], [ 121.243913218433391, 24.641498396229593 ], [ 121.302738956954016, 24.69452972825011 ], [ 121.307363614641957, 24.755833239119966 ], [ 121.29131178847345, 24.764466559790272 ], [ 121.20729579906066, 24.809653753472762 ], [ 121.22110287239407, 24.824800394338265 ], [ 121.226366330233304, 24.830574514868847 ], [ 121.248216942679605, 24.858907302979588 ], [ 121.268474669272777, 24.885174661690016 ], [ 121.276941383430525, 24.914282198504154 ], [ 121.330253201283327, 24.947383873184449 ], [ 121.333688562397342, 24.974455190210758 ], [ 121.366296859611381, 25.007588381357582 ], [ 121.387123141607333, 25.033592448028926 ], [ 121.384398873024722, 25.059145334712941 ], [ 121.364227662716658, 25.066348999743543 ], [ 121.377258549966356, 25.070812615916729 ], [ 121.396797870017636, 25.077505638680474 ], [ 121.423366184803456, 25.136186952083403 ], [ 121.394755397424262, 25.163692125903893 ], [ 121.414157895250398, 25.192774798580157 ], [ 121.518918897402713, 25.169347271441925 ], [ 121.542757265808177, 25.191105149663304 ], [ 121.549937361592299, 25.16961846273222 ], [ 121.59032646514008, 25.163076679983451 ], [ 121.590821532577792, 25.16356699695503 ], [ 121.604481187589343, 25.130577509882091 ], [ 121.696443089635906, 25.166447233335777 ], [ 121.721259783643461, 25.13848487897253 ], [ 121.739341280295619, 25.112084870550291 ], [ 121.760439563320702, 25.121174184236047 ], [ 121.766726951239065, 25.139533782576617 ], [ 121.770813131542539, 25.143567677464265 ], [ 121.853000742581074, 25.096658944577776 ], [ 121.831907253271169, 25.047094959752791 ], [ 121.768234488184831, 24.998902806862489 ], [ 121.782712634727005, 24.983500434149288 ], [ 121.84722021855454, 24.990299679313715 ], [ 121.862736983700373, 24.964665973257002 ], [ 121.83854547561549, 24.951010021478435 ], [ 121.851247668365858, 24.923860563727132 ], [ 121.695105706092619, 24.838530467087701 ], [ 121.597339858325611, 24.785102361557712 ], [ 121.595363853660956, 24.722777294885702 ], [ 121.470388400758694, 24.660376112957909 ], [ 121.479775885722972, 24.62969006815359 ], [ 121.438839837384236, 24.592005253700108 ], [ 121.412052785358696, 24.602810801681205 ], [ 121.396899531799917, 24.582413654085624 ], [ 121.398414318212374, 24.531314753166772 ], [ 121.31914440597032, 24.445498318927481 ], [ 121.315527309432539, 24.441582503728604 ], [ 121.258008849621135, 24.426873653076708 ], [ 121.258009547903512, 24.427216675512447 ], [ 121.258074378950326, 24.459064111580719 ], [ 121.203148298889445, 24.515549396919138 ] ] ] } },
{ "type": "Feature", "properties": { "BASIN_ID": 1670, "BASIN_NAME": "阿公店溪" }, "geometry": { "type": "Polygon", "coordinates": [ [ [ 120.224297713848969, 22.818753986359546 ], [ 120.264650272253022, 22.819598852797778 ], [ 120.294624794495675, 22.886680899369484 ], [ 120.333235388256398, 22.886336462070172 ], [ 120.352580695566488, 22.877728648478872 ], [ 120.359810237740234, 22.864981762980175 ], [ 120.345306665614487, 22.841925671929083 ], [ 120.415499255825168, 22.811411977748151 ], [ 120.412712425204703, 22.808659794334257 ], [ 120.38939231678053, 22.785629612613281 ], [ 120.334078223451556, 22.769821298680924 ], [ 120.276688648734208, 22.784391899844238 ], [ 120.245884857234273, 22.760089595739334 ], [ 120.224297713848969, 22.818753986359546 ] ] ] } },
{ "type": "Feature", "properties": { "BASIN_ID": 1660, "BASIN_NAME": "二仁溪" }, "geometry": { "type": "Polygon", "coordinates": [ [ [ 120.181255078009229, 22.935724998093612 ], [ 120.242114624080713, 23.006020823058453 ], [ 120.28628446027713, 23.004692963051617 ], [ 120.293694539357844, 22.959755183409385 ], [ 120.335149981610698, 22.94613632382227 ], [ 120.346116969737082, 22.960491011560489 ], [ 120.37595897501987, 22.951412486236993 ], [ 120.407793622760082, 22.973587664355609 ], [ 120.434952371173154, 22.963898657017516 ], [ 120.459082101842171, 23.002311194725394 ], [ 120.476206620100683, 23.00137812343787 ], [ 120.482543555500271, 22.929820806816291 ], [ 120.447284857355044, 22.848700458751143 ], [ 120.419880415636186, 22.809507426708933 ], [ 120.415499255825168, 22.811411977748151 ], [ 120.345306665614487, 22.841925671929083 ], [ 120.359810237740234, 22.864981762980175 ], [ 120.352580695566488, 22.877728648478872 ], [ 120.333235388256398, 22.886336462070172 ], [ 120.294624794495675, 22.886680899369484 ], [ 120.264650272253022, 22.819598852797778 ], [ 120.224297713848969, 22.818753986359546 ], [ 120.181255078009229, 22.935724998093612 ] ] ] } },
{ "type": "Feature", "properties": { "BASIN_ID": 2420, "BASIN_NAME": "花蓮溪" }, "geometry": { "type": "Polygon", "coordinates": [ [ [ 121.216326884373927, 23.611340328612528 ], [ 121.241868192433202, 23.708005506380047 ], [ 121.233063085757536, 23.749921811254485 ], [ 121.205881474974859, 23.763246631406531 ], [ 121.273363583872822, 23.907244408750852 ], [ 121.277941430068992, 23.96855556162199 ], [ 121.264051838076668, 23.974711998991054 ], [ 121.289257295105344, 24.055402850764629 ], [ 121.33081822445557, 24.112111244720168 ], [ 121.637189857743351, 24.109257918498184 ], [ 121.615364835262369, 24.090270986715268 ], [ 121.643914376555131, 24.011464116593103 ], [ 121.568309702851053, 23.767512304286306 ], [ 121.513892244728837, 23.481539919773603 ], [ 121.511577979863915, 23.473864495020084 ], [ 121.489036792735959, 23.487831910574382 ], [ 121.484802790004295, 23.54201263236472 ], [ 121.43161019243837, 23.547279434797296 ], [ 121.422885552918174, 23.592272586744588 ], [ 121.267728101467952, 23.640653020341187 ], [ 121.235497604499471, 23.608000252047947 ], [ 121.216326884373927, 23.611340328612528 ] ] ] } },
{ "type": "Feature", "properties": { "BASIN_ID": 1650, "BASIN_NAME": "鹽水溪" }, "geometry": { "type": "Polygon", "coordinates": [ [ [ 120.077606197881252, 23.022851193039269 ], [ 120.140668851478182, 23.072957116753464 ], [ 120.205850270321449, 23.071254101598388 ], [ 120.247490793226262, 23.131247577751214 ], [ 120.329291619052441, 23.126506439696321 ], [ 120.337227587345296, 23.08565763034866 ], [ 120.363190759793255, 23.085253417738286 ], [ 120.408418238760163, 22.97402275542904 ], [ 120.407793622760082, 22.973587664355609 ], [ 120.37595897501987, 22.951412486236993 ], [ 120.346116969737082, 22.960491011560489 ], [ 120.335149981610698, 22.94613632382227 ], [ 120.293694539357844, 22.959755183409385 ], [ 120.28628446027713, 23.004692963051617 ], [ 120.242114624080713, 23.006020823058453 ], [ 120.181255078009229, 22.935724998093612 ], [ 120.171953426178078, 22.961002809367479 ], [ 120.077606197881252, 23.022851193039269 ] ] ] } },
{ "type": "Feature", "properties": { "BASIN_ID": 1630, "BASIN_NAME": "曾文溪" }, "geometry": { "type": "Polygon", "coordinates": [ [ [ 120.037433182561898, 23.084566744420275 ], [ 120.207249336765315, 23.115208849399092 ], [ 120.242863865849827, 23.168018829477656 ], [ 120.275362130296699, 23.188612510958851 ], [ 120.352185535318554, 23.191502582898369 ], [ 120.364085864041542, 23.220222254107718 ], [ 120.367394423281596, 23.219415326372044 ], [ 120.380588769471643, 23.235820648157087 ], [ 120.477943319932621, 23.228508763590238 ], [ 120.519821727379991, 23.269524797664047 ], [ 120.544887018110899, 23.342139369367779 ], [ 120.546682650890787, 23.341148765087755 ], [ 120.651101840599054, 23.409894123070277 ], [ 120.716548920180813, 23.496412504575247 ], [ 120.730640821788313, 23.481579329619127 ], [ 120.818133117531303, 23.513389564499636 ], [ 120.830928303534094, 23.474565967340155 ], [ 120.833238225529001, 23.47467250655717 ], [ 120.821224850840679, 23.416569267016452 ], [ 120.769224319147725, 23.386350263408048 ], [ 120.554375389719269, 23.065977830022952 ], [ 120.482776493372924, 23.013633338076531 ], [ 120.476750957561464, 23.001348463879118 ], [ 120.476206620100683, 23.00137812343787 ], [ 120.459082101842171, 23.002311194725394 ], [ 120.434952371173154, 22.963898657017516 ], [ 120.407793622760082, 22.973587664355609 ], [ 120.408418238760163, 22.97402275542904 ], [ 120.363190759793255, 23.085253417738286 ], [ 120.337227587345296, 23.08565763034866 ], [ 120.329291619052441, 23.126506439696321 ], [ 120.247490793226262, 23.131247577751214 ], [ 120.205850270321449, 23.071254101598388 ], [ 120.140668851478182, 23.072957116753464 ], [ 120.077606197881252, 23.022851193039269 ], [ 120.062192459031564, 23.032955515671755 ], [ 120.035363987374978, 23.078784748034955 ], [ 120.037433182561898, 23.084566744420275 ] ] ] } },
{ "type": "Feature", "properties": { "BASIN_ID": 1350, "BASIN_NAME": "後龍溪" }, "geometry": { "type": "Polygon", "coordinates": [ [ [ 120.748938832195265, 24.609289843497564 ], [ 120.780593842726731, 24.65494855480949 ], [ 120.797763108210376, 24.668332881156466 ], [ 120.871921827010326, 24.599296546728809 ], [ 120.95407167872807, 24.599344024159645 ], [ 120.974752771477796, 24.579932626833266 ], [ 120.95186363069773, 24.527809412531866 ], [ 120.968625125844412, 24.504820636016088 ], [ 121.053248956934581, 24.504025097441847 ], [ 121.000454991268839, 24.410806545078604 ], [ 120.931281628748337, 24.374001252346048 ], [ 120.861566794945446, 24.359135511237042 ], [ 120.827759501125499, 24.380759857799109 ], [ 120.822487160667393, 24.384132234123175 ], [ 120.78783653954261, 24.420877178319767 ], [ 120.794464399225006, 24.463296231866256 ], [ 120.786580131311922, 24.504162087177612 ], [ 120.790966279576352, 24.5532200788316 ], [ 120.748938832195265, 24.609289843497564 ] ] ] } },
{ "type": "Feature", "properties": { "BASIN_ID": 1340, "BASIN_NAME": "中港溪" }, "geometry": { "type": "Polygon", "coordinates": [ [ [ 120.797763108210376, 24.668332881156466 ], [ 120.876997371194591, 24.730100068264896 ], [ 120.951235800149021, 24.706642739568917 ], [ 120.98759126722328, 24.71073772460819 ], [ 121.000185832422858, 24.721196572167486 ], [ 121.000456112255918, 24.720957164171562 ], [ 121.057593334468152, 24.737039212276894 ], [ 121.073740058426381, 24.728603220954984 ], [ 121.09272737256147, 24.684140331197479 ], [ 121.079812043039922, 24.600351781201372 ], [ 121.071228992041242, 24.503856069269649 ], [ 121.053248956934581, 24.504025097441847 ], [ 120.968625125844412, 24.504820636016088 ], [ 120.95186363069773, 24.527809412531866 ], [ 120.974752771477796, 24.579932626833266 ], [ 120.95407167872807, 24.599344024159645 ], [ 120.871921827010326, 24.599296546728809 ], [ 120.797763108210376, 24.668332881156466 ] ] ] } },
{ "type": "Feature", "properties": { "BASIN_ID": 2640, "BASIN_NAME": "瑪鍊溪" }, "geometry": { "type": "Polygon", "coordinates": [ [ [ 121.590821532577792, 25.16356699695503 ], [ 121.604711557986633, 25.177323739319654 ], [ 121.604981283760281, 25.178819651972827 ], [ 121.640302811046112, 25.165934352528566 ], [ 121.697685843422875, 25.206178843435442 ], [ 121.728425242400462, 25.163738876624937 ], [ 121.774790784048278, 25.147494433240094 ], [ 121.770813131542539, 25.143567677464265 ], [ 121.766726951239065, 25.139533782576617 ], [ 121.760439563320702, 25.121174184236047 ], [ 121.739341280295619, 25.112084870550291 ], [ 121.721259783643461, 25.13848487897253 ], [ 121.696443089635906, 25.166447233335777 ], [ 121.604481187589343, 25.130577509882091 ], [ 121.590821532577792, 25.16356699695503 ] ] ] } },
{ "type": "Feature", "properties": { "BASIN_ID": 1590, "BASIN_NAME": "急水溪" }, "geometry": { "type": "Polygon", "coordinates": [ [ [ 120.109756230919388, 23.286660585939725 ], [ 120.120777143657534, 23.317456558218048 ], [ 120.19175414110876, 23.280442626682362 ], [ 120.299381984748194, 23.325929331350267 ], [ 120.351718735521459, 23.373679001399669 ], [ 120.492332428559664, 23.371132380593401 ], [ 120.544887018110899, 23.342139369367779 ], [ 120.519821727379991, 23.269524797664047 ], [ 120.477943319932621, 23.228508763590238 ], [ 120.380588769471643, 23.235820648157087 ], [ 120.367394423281596, 23.219415326372044 ], [ 120.364085864041542, 23.220222254107718 ], [ 120.326705350311599, 23.229339024010805 ], [ 120.235768306521337, 23.249491465361007 ], [ 120.109756230919388, 23.286660585939725 ] ] ] } },
{ "type": "Feature", "properties": { "BASIN_ID": 1580, "BASIN_NAME": "八掌溪" }, "geometry": { "type": "Polygon", "coordinates": [ [ [ 120.120777143657534, 23.317456558218048 ], [ 120.132118316277285, 23.349147439536171 ], [ 120.212562928755332, 23.316318949701547 ], [ 120.298228508423364, 23.391415043913508 ], [ 120.307904148910652, 23.389843605918053 ], [ 120.367990274754519, 23.444265263891179 ], [ 120.426675463966646, 23.44960200202279 ], [ 120.433252076643811, 23.465978448014873 ], [ 120.49191479337982, 23.480489016707807 ], [ 120.604475613494486, 23.448109849962602 ], [ 120.655746444685263, 23.508164112487808 ], [ 120.660222685331277, 23.503926719204699 ], [ 120.7039850477356, 23.509637271771108 ], [ 120.716548920180813, 23.496412504575247 ], [ 120.651101840599054, 23.409894123070277 ], [ 120.546682650890787, 23.341148765087755 ], [ 120.544887018110899, 23.342139369367779 ], [ 120.492332428559664, 23.371132380593401 ], [ 120.351718735521459, 23.373679001399669 ], [ 120.299381984748194, 23.325929331350267 ], [ 120.19175414110876, 23.280442626682362 ], [ 120.120777143657534, 23.317456558218048 ] ] ] } },
{ "type": "Feature", "properties": { "BASIN_ID": 2370, "BASIN_NAME": "秀姑巒溪" }, "geometry": { "type": "Polygon", "coordinates": [ [ [ 121.037973528450522, 23.491633944983327 ], [ 121.053643058870364, 23.493045428318389 ], [ 121.069723618528471, 23.516546307989259 ], [ 121.149537225344631, 23.52773266620332 ], [ 121.154034689277225, 23.582407715246113 ], [ 121.213389470002255, 23.600223212693674 ], [ 121.216326884373927, 23.611340328612528 ], [ 121.235497604499471, 23.608000252047947 ], [ 121.267728101467952, 23.640653020341187 ], [ 121.422885552918174, 23.592272586744588 ], [ 121.43161019243837, 23.547279434797296 ], [ 121.484802790004295, 23.54201263236472 ], [ 121.489036792735959, 23.487831910574382 ], [ 121.511577979863915, 23.473864495020084 ], [ 121.499502976909241, 23.433816885093595 ], [ 121.450112171875531, 23.446045629287255 ], [ 121.404518122453979, 23.387913694093395 ], [ 121.37652849168326, 23.27862298272257 ], [ 121.314178634499655, 23.110116257992871 ], [ 121.253923094141712, 23.099569700987178 ], [ 121.2390170289152, 23.09696068502436 ], [ 121.174994205636523, 23.1430391940555 ], [ 121.13085971680627, 23.220761222204597 ], [ 121.08441615865938, 23.226925559477085 ], [ 121.04679833448624, 23.304543639992684 ], [ 121.053481980063751, 23.30768387037779 ], [ 121.037973528450522, 23.491633944983327 ] ] ] } },
{ "type": "Feature", "properties": { "BASIN_ID": 1320, "BASIN_NAME": "鹽港溪排水" }, "geometry": { "type": "Polygon", "coordinates": [ [ [ 120.876997371194591, 24.730100068264896 ], [ 120.904638035234257, 24.751647388871376 ], [ 120.906372621759715, 24.804294273175767 ], [ 121.000185832422858, 24.721196572167486 ], [ 120.98759126722328, 24.71073772460819 ], [ 120.951235800149021, 24.706642739568917 ], [ 120.876997371194591, 24.730100068264896 ] ] ] } },
{ "type": "Feature", "properties": { "BASIN_ID": 1850, "BASIN_NAME": "四重溪" }, "geometry": { "type": "Polygon", "coordinates": [ [ [ 120.703551756543348, 22.088887174354422 ], [ 120.733274779563914, 22.089573329671722 ], [ 120.735308608044292, 22.17518778613114 ], [ 120.858195460416965, 22.211118756328407 ], [ 120.847812550594966, 22.168176106585687 ], [ 120.837689947860284, 22.142866280992227 ], [ 120.82261233025288, 22.134928333191066 ], [ 120.811689751727329, 22.097604753074346 ], [ 120.780420325983016, 22.102165764679963 ], [ 120.751410487784398, 22.068135076176191 ], [ 120.737156804373797, 22.066323893810107 ], [ 120.733883992355786, 22.057118520660691 ], [ 120.703786836121694, 22.060432345773535 ], [ 120.704761599044616, 22.062355424539618 ], [ 120.703551756543348, 22.088887174354422 ] ] ] } },
{ "type": "Feature", "properties": { "BASIN_ID": 1310, "BASIN_NAME": "客雅溪排水" }, "geometry": { "type": "Polygon", "coordinates": [ [ [ 120.906372621759715, 24.804294273175767 ], [ 120.906826535381498, 24.818071122920188 ], [ 120.91935655641872, 24.837751554330815 ], [ 121.054164819130023, 24.738830468863327 ], [ 121.057593334468152, 24.737039212276894 ], [ 121.000456112255918, 24.720957164171562 ], [ 121.000185832422858, 24.721196572167486 ], [ 120.906372621759715, 24.804294273175767 ] ] ] } },
{ "type": "Feature", "properties": { "BASIN_ID": 1300, "BASIN_NAME": "頭前溪" }, "geometry": { "type": "Polygon", "coordinates": [ [ [ 120.91935655641872, 24.837751554330815 ], [ 120.936101266780113, 24.864051839284816 ], [ 120.987578155564819, 24.842560811922478 ], [ 121.076023131705952, 24.803199707990824 ], [ 121.115184117906352, 24.779671422080678 ], [ 121.152094016973578, 24.75766799134859 ], [ 121.157078589168606, 24.716787357037202 ], [ 121.200154492824112, 24.719801732488495 ], [ 121.29131178847345, 24.764466559790272 ], [ 121.307363614641957, 24.755833239119966 ], [ 121.302738956954016, 24.69452972825011 ], [ 121.243913218433391, 24.641498396229593 ], [ 121.251155012871578, 24.628712757841178 ], [ 121.199094008095315, 24.580250250709934 ], [ 121.202344060745048, 24.516376465244711 ], [ 121.203148298889445, 24.515549396919138 ], [ 121.070813665307185, 24.499186721633976 ], [ 121.071228992041242, 24.503856069269649 ], [ 121.079812043039922, 24.600351781201372 ], [ 121.09272737256147, 24.684140331197479 ], [ 121.073740058426381, 24.728603220954984 ], [ 121.057593334468152, 24.737039212276894 ], [ 121.054164819130023, 24.738830468863327 ], [ 120.91935655641872, 24.837751554330815 ] ] ] } },
{ "type": "Feature", "properties": { "BASIN_ID": 1550, "BASIN_NAME": "朴子溪" }, "geometry": { "type": "Polygon", "coordinates": [ [ [ 120.146628218329766, 23.460759659707502 ], [ 120.201320829299661, 23.484125544502547 ], [ 120.227669409366669, 23.478381861844444 ], [ 120.299847725143977, 23.500440312829731 ], [ 120.313612001053002, 23.517364625662371 ], [ 120.449355492469635, 23.523269450798249 ], [ 120.608345732848846, 23.55303557357183 ], [ 120.655746444685263, 23.508164112487808 ], [ 120.604475613494486, 23.448109849962602 ], [ 120.49191479337982, 23.480489016707807 ], [ 120.433252076643811, 23.465978448014873 ], [ 120.426675463966646, 23.44960200202279 ], [ 120.367990274754519, 23.444265263891179 ], [ 120.307904148910652, 23.389843605918053 ], [ 120.298228508423364, 23.391415043913508 ], [ 120.225337597999044, 23.403253386430936 ], [ 120.147600662556172, 23.420757536078437 ], [ 120.146628218329766, 23.460759659707502 ] ] ] } },
{ "type": "Feature", "properties": { "BASIN_ID": 1290, "BASIN_NAME": "鳳山溪" }, "geometry": { "type": "Polygon", "coordinates": [ [ [ 120.936101266780113, 24.864051839284816 ], [ 120.949782285902501, 24.885540099972179 ], [ 120.981976037715839, 24.861975848486559 ], [ 121.050858022685105, 24.86145734144451 ], [ 121.126913656824172, 24.884383995812417 ], [ 121.129280280253354, 24.880825580324526 ], [ 121.178556658244418, 24.872088900483313 ], [ 121.22110287239407, 24.824800394338265 ], [ 121.20729579906066, 24.809653753472762 ], [ 121.29131178847345, 24.764466559790272 ], [ 121.200154492824112, 24.719801732488495 ], [ 121.157078589168606, 24.716787357037202 ], [ 121.152094016973578, 24.75766799134859 ], [ 121.115184117906352, 24.779671422080678 ], [ 121.076023131705952, 24.803199707990824 ], [ 120.987578155564819, 24.842560811922478 ], [ 120.936101266780113, 24.864051839284816 ] ] ] } },
{ "type": "Feature", "properties": { "BASIN_ID": 1540, "BASIN_NAME": "北港溪" }, "geometry": { "type": "Polygon", "coordinates": [ [ [ 120.146628218329766, 23.460759659707502 ], [ 120.144866384646434, 23.533233830360647 ], [ 120.224563695855522, 23.526895032324433 ], [ 120.258799060847053, 23.549034639160681 ], [ 120.354719698405717, 23.656260872602886 ], [ 120.428307649912085, 23.7004956132754 ], [ 120.59061341650316, 23.772973854424077 ], [ 120.632859339750084, 23.778788642653328 ], [ 120.638985629253952, 23.772160053987889 ], [ 120.636056791806666, 23.627027057202582 ], [ 120.607989564837055, 23.553372736843464 ], [ 120.608345732848846, 23.55303557357183 ], [ 120.449355492469635, 23.523269450798249 ], [ 120.313612001053002, 23.517364625662371 ], [ 120.299847725143977, 23.500440312829731 ], [ 120.227669409366669, 23.478381861844444 ], [ 120.201320829299661, 23.484125544502547 ], [ 120.146628218329766, 23.460759659707502 ] ] ] } },
{ "type": "Feature", "properties": { "BASIN_ID": 1280, "BASIN_NAME": "新豐溪" }, "geometry": { "type": "Polygon", "coordinates": [ [ [ 120.949782285902501, 24.885540099972179 ], [ 120.982074679276877, 24.936260544175877 ], [ 121.116160413975763, 24.900552392281817 ], [ 121.126913656824172, 24.884383995812417 ], [ 121.050858022685105, 24.86145734144451 ], [ 120.981976037715839, 24.861975848486559 ], [ 120.949782285902501, 24.885540099972179 ] ] ] } },
{ "type": "Feature", "properties": { "BASIN_ID": 1270, "BASIN_NAME": "福興溪排水" }, "geometry": { "type": "Polygon", "coordinates": [ [ [ 120.982074679276877, 24.936260544175877 ], [ 121.000491119100118, 24.965186551537947 ], [ 121.104125436500695, 24.940113416666428 ], [ 121.119216601160659, 24.899738504089608 ], [ 121.116160413975763, 24.900552392281817 ], [ 120.982074679276877, 24.936260544175877 ] ] ] } },
{ "type": "Feature", "properties": { "BASIN_ID": 1010, "BASIN_NAME": "磺溪" }, "geometry": { "type": "Polygon", "coordinates": [ [ [ 121.542757265808177, 25.191105149663304 ], [ 121.541903398029362, 25.19366037875713 ], [ 121.615202322861293, 25.253914478781144 ], [ 121.620762897252078, 25.242651615200025 ], [ 121.644102792559664, 25.243524659220139 ], [ 121.650178207638007, 25.228475608615074 ], [ 121.652333594093321, 25.227581473419324 ], [ 121.611063043291537, 25.212549395013092 ], [ 121.604981283760281, 25.178819651972827 ], [ 121.604711557986633, 25.177323739319654 ], [ 121.590821532577792, 25.16356699695503 ], [ 121.59032646514008, 25.163076679983451 ], [ 121.549937361592299, 25.16961846273222 ], [ 121.542757265808177, 25.191105149663304 ] ] ] } },
{ "type": "Feature", "properties": { "BASIN_ID": 2560, "BASIN_NAME": "蘭陽溪" }, "geometry": { "type": "Polygon", "coordinates": [ [ [ 121.31914440597032, 24.445498318927481 ], [ 121.398414318212374, 24.531314753166772 ], [ 121.396899531799917, 24.582413654085624 ], [ 121.412052785358696, 24.602810801681205 ], [ 121.438839837384236, 24.592005253700108 ], [ 121.479775885722972, 24.62969006815359 ], [ 121.470388400758694, 24.660376112957909 ], [ 121.595363853660956, 24.722777294885702 ], [ 121.597339858325611, 24.785102361557712 ], [ 121.695105706092619, 24.838530467087701 ], [ 121.765660611569615, 24.763452555770073 ], [ 121.823498707101351, 24.771541305974978 ], [ 121.836582910502827, 24.721753498534977 ], [ 121.840001682605006, 24.704133663317464 ], [ 121.779193531433208, 24.690321974101838 ], [ 121.726250155961594, 24.625189246048375 ], [ 121.74607405262735, 24.57502150349254 ], [ 121.591219439393853, 24.528238051443552 ], [ 121.586058207504905, 24.526678780850652 ], [ 121.486433305329015, 24.471850414327701 ], [ 121.441286830100978, 24.38893723671227 ], [ 121.436992902860609, 24.381051279942678 ], [ 121.38117263582518, 24.369960808640332 ], [ 121.31914440597032, 24.445498318927481 ] ] ] } },
{ "type": "Feature", "properties": { "BASIN_ID": 1510, "BASIN_NAME": "濁水溪" }, "geometry": { "type": "Polygon", "coordinates": [ [ [ 120.219900477350492, 23.846212873651684 ], [ 120.250657235977471, 23.890575959920252 ], [ 120.619483830057391, 23.795619295053122 ], [ 120.654460798005388, 23.799278584946659 ], [ 120.65056464294122, 23.822638346066771 ], [ 120.748758767087494, 23.858226233021572 ], [ 120.846543900318167, 23.860909713856955 ], [ 120.89316123761246, 23.92840123886203 ], [ 120.954343149615354, 23.840028218236533 ], [ 120.987675553593959, 23.840034488582166 ], [ 121.052170062123636, 23.969309348322732 ], [ 121.116694247296039, 23.988691673341755 ], [ 121.174121345378495, 24.093390237864742 ], [ 121.267130323684398, 24.118805210192612 ], [ 121.270689491282468, 24.14215423682413 ], [ 121.274968242478479, 24.139230584616758 ], [ 121.281402034857265, 24.147298593609147 ], [ 121.331138391976907, 24.112548101792807 ], [ 121.33081822445557, 24.112111244720168 ], [ 121.289257295105344, 24.055402850764629 ], [ 121.264051838076668, 23.974711998991054 ], [ 121.277941430068992, 23.96855556162199 ], [ 121.273363583872822, 23.907244408750852 ], [ 121.205881474974859, 23.763246631406531 ], [ 121.233063085757536, 23.749921811254485 ], [ 121.241868192433202, 23.708005506380047 ], [ 121.216326884373927, 23.611340328612528 ], [ 121.213389470002255, 23.600223212693674 ], [ 121.154034689277225, 23.582407715246113 ], [ 121.149537225344631, 23.52773266620332 ], [ 121.069723618528471, 23.516546307989259 ], [ 121.053643058870364, 23.493045428318389 ], [ 121.037973528450522, 23.491633944983327 ], [ 120.95723667091454, 23.484361312946255 ], [ 120.953364682636874, 23.466474183165243 ], [ 120.887433835208, 23.477172139806072 ], [ 120.833238225529001, 23.47467250655717 ], [ 120.830928303534094, 23.474565967340155 ], [ 120.818133117531303, 23.513389564499636 ], [ 120.730640821788313, 23.481579329619127 ], [ 120.716548920180813, 23.496412504575247 ], [ 120.7039850477356, 23.509637271771108 ], [ 120.660222685331277, 23.503926719204699 ], [ 120.655746444685263, 23.508164112487808 ], [ 120.608345732848846, 23.55303557357183 ], [ 120.607989564837055, 23.553372736843464 ], [ 120.636056791806666, 23.627027057202582 ], [ 120.638985629253952, 23.772160053987889 ], [ 120.632859339750084, 23.778788642653328 ], [ 120.59061341650316, 23.772973854424077 ], [ 120.473585619433138, 23.75686598401678 ], [ 120.385279460651191, 23.764204757691072 ], [ 120.3540554167935, 23.791159675617976 ], [ 120.302943893398322, 23.795536149048505 ], [ 120.219900477350492, 23.846212873651684 ] ] ] } },
{ "type": "Feature", "properties": { "BASIN_ID": 1740, "BASIN_NAME": "東港溪" }, "geometry": { "type": "Polygon", "coordinates": [ [ [ 120.432845221550892, 22.459039403806674 ], [ 120.506402456558121, 22.662995761334184 ], [ 120.642313409932086, 22.703731624730452 ], [ 120.706925581005308, 22.626690415151803 ], [ 120.705458797410174, 22.624642403451869 ], [ 120.632877417436404, 22.523299904206105 ], [ 120.531896933179112, 22.451486660195918 ], [ 120.502771120215073, 22.412419350714973 ], [ 120.432845221550892, 22.459039403806674 ] ] ] } },
{ "type": "Feature", "properties": { "BASIN_ID": 2500, "BASIN_NAME": "和平溪" }, "geometry": { "type": "Polygon", "coordinates": [ [ [ 121.441286830100978, 24.38893723671227 ], [ 121.486433305329015, 24.471850414327701 ], [ 121.586058207504905, 24.526678780850652 ], [ 121.591219439393853, 24.528238051443552 ], [ 121.640655355004185, 24.499887982235027 ], [ 121.670320335534328, 24.407789817928702 ], [ 121.730397303640231, 24.375833596885258 ], [ 121.788811056645542, 24.387811422599444 ], [ 121.773617761190351, 24.30517317487767 ], [ 121.75932919244093, 24.291798221964001 ], [ 121.676434516615998, 24.298419911612569 ], [ 121.639502558720665, 24.270988335968575 ], [ 121.561421659855526, 24.260055566804763 ], [ 121.458968641455542, 24.369968038695163 ], [ 121.441286830100978, 24.38893723671227 ] ] ] } },
{ "type": "Feature", "properties": { "BASIN_ID": 1730, "BASIN_NAME": "高屏溪" }, "geometry": { "type": "Polygon", "coordinates": [ [ [ 120.359834734812083, 22.507715971902861 ], [ 120.392316733024543, 22.559879673515951 ], [ 120.358842957373767, 22.658895800634486 ], [ 120.391795537558338, 22.678444582559081 ], [ 120.410189869010807, 22.759517179276209 ], [ 120.411554842993482, 22.758499172894364 ], [ 120.433481484534738, 22.786431078464211 ], [ 120.412712425204703, 22.808659794334257 ], [ 120.415499255825168, 22.811411977748151 ], [ 120.419880415636186, 22.809507426708933 ], [ 120.447284857355044, 22.848700458751143 ], [ 120.482543555500271, 22.929820806816291 ], [ 120.476206620100683, 23.00137812343787 ], [ 120.476750957561464, 23.001348463879118 ], [ 120.482776493372924, 23.013633338076531 ], [ 120.554375389719269, 23.065977830022952 ], [ 120.769224319147725, 23.386350263408048 ], [ 120.821224850840679, 23.416569267016452 ], [ 120.833238225529001, 23.47467250655717 ], [ 120.887433835208, 23.477172139806072 ], [ 120.953364682636874, 23.466474183165243 ], [ 120.95723667091454, 23.484361312946255 ], [ 121.037973528450522, 23.491633944983327 ], [ 121.053481980063751, 23.30768387037779 ], [ 121.04679833448624, 23.304543639992684 ], [ 120.922937306262014, 23.24634902750919 ], [ 120.878872480166663, 23.04701178345811 ], [ 120.820472390907923, 22.943722414368199 ], [ 120.913276955736052, 22.786391192463608 ], [ 120.912961714264171, 22.785316475745301 ], [ 120.896783844923903, 22.730163114917008 ], [ 120.794375521901841, 22.684067291413033 ], [ 120.755953840330477, 22.609395727065941 ], [ 120.705458797410174, 22.624642403451869 ], [ 120.706925581005308, 22.626690415151803 ], [ 120.642313409932086, 22.703731624730452 ], [ 120.506402456558121, 22.662995761334184 ], [ 120.432845221550892, 22.459039403806674 ], [ 120.359834734812083, 22.507715971902861 ] ] ] } },
{ "type": "Feature", "properties": { "BASIN_ID": 1180, "BASIN_NAME": "南崁溪" }, "geometry": { "type": "Polygon", "coordinates": [ [ [ 121.216841507300728, 25.107278666283189 ], [ 121.24836269197796, 25.120362077299241 ], [ 121.286617611020461, 25.125983160441216 ], [ 121.377258549966356, 25.070812615916729 ], [ 121.364227662716658, 25.066348999743543 ], [ 121.384398873024722, 25.059145334712941 ], [ 121.387123141607333, 25.033592448028926 ], [ 121.366296859611381, 25.007588381357582 ], [ 121.333688562397342, 24.974455190210758 ], [ 121.330253201283327, 24.947383873184449 ], [ 121.276941383430525, 24.914282198504154 ], [ 121.268474669272777, 24.885174661690016 ], [ 121.248216942679605, 24.858907302979588 ], [ 121.275919363582062, 24.9977726106769 ], [ 121.257592599016519, 25.081085573857003 ], [ 121.216841507300728, 25.107278666283189 ] ] ] } },
{ "type": "Feature", "properties": { "BASIN_ID": 1430, "BASIN_NAME": "烏溪" }, "geometry": { "type": "Polygon", "coordinates": [ [ [ 120.461166964072433, 24.194212027072535 ], [ 120.471177497663788, 24.20865107023354 ], [ 120.577741575488901, 24.164953988155705 ], [ 120.611439734097175, 24.255485707840446 ], [ 120.659313363295738, 24.276550258423025 ], [ 120.710097155875019, 24.250595981731728 ], [ 120.760788823982509, 24.262947513060503 ], [ 120.83788027236281, 24.12406259236236 ], [ 120.918591180046732, 24.154275045467301 ], [ 120.978741847475035, 24.114949390784634 ], [ 121.014933414062867, 24.155828982355168 ], [ 121.059486371045068, 24.158373037596071 ], [ 121.213307230378959, 24.227217742222212 ], [ 121.238921406363417, 24.217982121465035 ], [ 121.22324521913373, 24.174572703016853 ], [ 121.270689491282468, 24.14215423682413 ], [ 121.267130323684398, 24.118805210192612 ], [ 121.174121345378495, 24.093390237864742 ], [ 121.116694247296039, 23.988691673341755 ], [ 121.052170062123636, 23.969309348322732 ], [ 120.987675553593959, 23.840034488582166 ], [ 120.954343149615354, 23.840028218236533 ], [ 120.89316123761246, 23.92840123886203 ], [ 120.846543900318167, 23.860909713856955 ], [ 120.748758767087494, 23.858226233021572 ], [ 120.65056464294122, 23.822638346066771 ], [ 120.643851891797496, 23.820205485333648 ], [ 120.64185101838217, 23.941817836484663 ], [ 120.566842399774188, 24.093897744051475 ], [ 120.512174508818021, 24.125413522439562 ], [ 120.510874340289277, 24.174462685396858 ], [ 120.461166964072433, 24.194212027072535 ] ] ] } },
{ "type": "Feature", "properties": { "BASIN_ID": 1420, "BASIN_NAME": "大甲溪" }, "geometry": { "type": "Polygon", "coordinates": [ [ [ 120.471177497663788, 24.20865107023354 ], [ 120.601058409574378, 24.39598934503714 ], [ 120.648497221170061, 24.358280343332648 ], [ 120.714384159843533, 24.327249742166867 ], [ 120.969804762647087, 24.240649618925737 ], [ 121.258009547903512, 24.427216675512447 ], [ 121.258008849621135, 24.426873653076708 ], [ 121.315527309432539, 24.441582503728604 ], [ 121.31914440597032, 24.445498318927481 ], [ 121.38117263582518, 24.369960808640332 ], [ 121.436992902860609, 24.381051279942678 ], [ 121.441286830100978, 24.38893723671227 ], [ 121.458968641455542, 24.369968038695163 ], [ 121.281402034857265, 24.147298593609147 ], [ 121.274968242478479, 24.139230584616758 ], [ 121.270689491282468, 24.14215423682413 ], [ 121.22324521913373, 24.174572703016853 ], [ 121.238921406363417, 24.217982121465035 ], [ 121.213307230378959, 24.227217742222212 ], [ 121.059486371045068, 24.158373037596071 ], [ 121.014933414062867, 24.155828982355168 ], [ 120.978741847475035, 24.114949390784634 ], [ 120.918591180046732, 24.154275045467301 ], [ 120.83788027236281, 24.12406259236236 ], [ 120.760788823982509, 24.262947513060503 ], [ 120.710097155875019, 24.250595981731728 ], [ 120.659313363295738, 24.276550258423025 ], [ 120.611439734097175, 24.255485707840446 ], [ 120.577741575488901, 24.164953988155705 ], [ 120.471177497663788, 24.20865107023354 ] ] ] } },
{ "type": "Feature", "properties": { "BASIN_ID": 2200, "BASIN_NAME": "卑南溪" }, "geometry": { "type": "Polygon", "coordinates": [ [ [ 121.148462248831919, 22.749290702047702 ], [ 121.08529649838961, 22.869185435267084 ], [ 120.912961714264171, 22.785316475745301 ], [ 120.913276955736052, 22.786391192463608 ], [ 120.820472390907923, 22.943722414368199 ], [ 120.878872480166663, 23.04701178345811 ], [ 120.922937306262014, 23.24634902750919 ], [ 121.04679833448624, 23.304543639992684 ], [ 121.08441615865938, 23.226925559477085 ], [ 121.13085971680627, 23.220761222204597 ], [ 121.174994205636523, 23.1430391940555 ], [ 121.2390170289152, 23.09696068502436 ], [ 121.253923094141712, 23.099569700987178 ], [ 121.154740696659218, 22.828247562805366 ], [ 121.195767027092117, 22.783653562492294 ], [ 121.148462248831919, 22.749290702047702 ] ] ] } }
]
}
