{
"type": "FeatureCollection",
"name": "hbar",
"crs": { "type": "name", "properties": { "name": "urn:ogc:def:crs:OGC:1.3:CRS84" } },
"features": [
{ "type": "Feature", "properties": { "ID": "R1" }, "geometry": { "type": "Point", "coordinates": [ 120.454788687103459, 22.698304582299457, 0.0 ] } },
{ "type": "Feature", "properties": { "ID": "R2" }, "geometry": { "type": "Point", "coordinates": [ 120.454691418220023, 22.69830136835882, 0.0 ] } },
{ "type": "Feature", "properties": { "ID": "R3" }, "geometry": { "type": "Point", "coordinates": [ 120.454594964097424, 22.698289276655736, 0.0 ] } },
{ "type": "Feature", "properties": { "ID": "R4" }, "geometry": { "type": "Point", "coordinates": [ 120.454497695232007, 22.698286062597621, 0.0 ] } },
{ "type": "Feature", "properties": { "ID": "R5" }, "geometry": { "type": "Point", "coordinates": [ 120.454401241139763, 22.698273970778292, 0.0 ] } },
{ "type": "Feature", "properties": { "ID": "R6" }, "geometry": { "type": "Point", "coordinates": [ 120.454303972292337, 22.698270756602721, 0.0 ] } },
{ "type": "Feature", "properties": { "ID": "R7" }, "geometry": { "type": "Point", "coordinates": [ 120.454207518230433, 22.698258664667129, 0.0 ] } },
{ "type": "Feature", "properties": { "ID": "R8" }, "geometry": { "type": "Point", "coordinates": [ 120.454110249401012, 22.698255450374106, 0.0 ] } },
{ "type": "Feature", "properties": { "ID": "R9" }, "geometry": { "type": "Point", "coordinates": [ 120.454013795369448, 22.698243358322266, 0.0 ] } },
{ "type": "Feature", "properties": { "ID": "R10" }, "geometry": { "type": "Point", "coordinates": [ 120.453916526558032, 22.698240143911768, 0.0 ] } },
{ "type": "Feature", "properties": { "ID": "R11" }, "geometry": { "type": "Point", "coordinates": [ 120.453817439409121, 22.698227843689718, 0.0 ] } },
{ "type": "Feature", "properties": { "ID": "R12" }, "geometry": { "type": "Point", "coordinates": [ 120.453720170615966, 22.698224629160165, 0.0 ] } },
{ "type": "Feature", "properties": { "ID": "R13" }, "geometry": { "type": "Point", "coordinates": [ 120.453626349792572, 22.698212744931389, 0.0 ] } },
{ "type": "Feature", "properties": { "ID": "R14" }, "geometry": { "type": "Point", "coordinates": [ 120.45352908101718, 22.698209530285965, 0.0 ] } },
{ "type": "Feature", "properties": { "ID": "R15" }, "geometry": { "type": "Point", "coordinates": [ 120.453426708088188, 22.698201441231653, 0.0 ] } },
{ "type": "Feature", "properties": { "ID": "R16" }, "geometry": { "type": "Point", "coordinates": [ 120.453335358319279, 22.698194223122496, 0.0 ] } },
{ "type": "Feature", "properties": { "ID": "R17" }, "geometry": { "type": "Point", "coordinates": [ 120.453226183836179, 22.698190395622326, 0.0 ] } },
{ "type": "Feature", "properties": { "ID": "L1" }, "geometry": { "type": "Point", "coordinates": [ 120.454792497344741, 22.698205307207878, 0.0 ] } },
{ "type": "Feature", "properties": { "ID": "L2" }, "geometry": { "type": "Point", "coordinates": [ 120.454695228531207, 22.69820209327089, 0.0 ] } },
{ "type": "Feature", "properties": { "ID": "L3" }, "geometry": { "type": "Point", "coordinates": [ 120.454598774477532, 22.698190001571309, 0.0 ] } },
{ "type": "Feature", "properties": { "ID": "L4" }, "geometry": { "type": "Point", "coordinates": [ 120.454501505682018, 22.698186787516853, 0.0 ] } },
{ "type": "Feature", "properties": { "ID": "L5" }, "geometry": { "type": "Point", "coordinates": [ 120.454405051658696, 22.698174695701024, 0.0 ] } },
{ "type": "Feature", "properties": { "ID": "L6" }, "geometry": { "type": "Point", "coordinates": [ 120.454307782881159, 22.698171481529101, 0.0 ] } },
{ "type": "Feature", "properties": { "ID": "L7" }, "geometry": { "type": "Point", "coordinates": [ 120.454211328888206, 22.698159389597024, 0.0 ] } },
{ "type": "Feature", "properties": { "ID": "L8" }, "geometry": { "type": "Point", "coordinates": [ 120.45411406012866, 22.698156175307648, 0.0 ] } },
{ "type": "Feature", "properties": { "ID": "L9" }, "geometry": { "type": "Point", "coordinates": [ 120.454017606166062, 22.698144083259308, 0.0 ] } },
{ "type": "Feature", "properties": { "ID": "L10" }, "geometry": { "type": "Point", "coordinates": [ 120.453920337424535, 22.698140868852462, 0.0 ] } },
{ "type": "Feature", "properties": { "ID": "L11" }, "geometry": { "type": "Point", "coordinates": [ 120.453821250346422, 22.698128568634012, 0.0 ] } },
{ "type": "Feature", "properties": { "ID": "L12" }, "geometry": { "type": "Point", "coordinates": [ 120.45372398162317, 22.698125354108114, 0.0 ] } },
{ "type": "Feature", "properties": { "ID": "L13" }, "geometry": { "type": "Point", "coordinates": [ 120.453630160866823, 22.698113469882742, 0.0 ] } },
{ "type": "Feature", "properties": { "ID": "L14" }, "geometry": { "type": "Point", "coordinates": [ 120.453532892161292, 22.698110255240973, 0.0 ] } },
{ "type": "Feature", "properties": { "ID": "L15" }, "geometry": { "type": "Point", "coordinates": [ 120.453430519305684, 22.698102166190441, 0.0 ] } },
{ "type": "Feature", "properties": { "ID": "L16" }, "geometry": { "type": "Point", "coordinates": [ 120.453339169602231, 22.698094948084663, 0.0 ] } },
{ "type": "Feature", "properties": { "ID": "L17" }, "geometry": { "type": "Point", "coordinates": [ 120.453226625731588, 22.69807905654179, 0.0 ] } },
{ "type": "Feature", "properties": { "ID": "L18" }, "geometry": { "type": "Point", "coordinates": [ 120.453138912204949, 22.698078756818379, 0.0 ] } },
{ "type": "Feature", "properties": { "ID": null }, "geometry": { "type": "Point", "coordinates": [ 120.455841847073927, 22.700676195210512, 0.0 ] } },
{ "type": "Feature", "properties": { "ID": null }, "geometry": { "type": "Point", "coordinates": [ 120.455771343742953, 22.700613931976132, 0.0 ] } },
{ "type": "Feature", "properties": { "ID": null }, "geometry": { "type": "Point", "coordinates": [ 120.455700839466786, 22.700551677738801, 0.0 ] } },
{ "type": "Feature", "properties": { "ID": null }, "geometry": { "type": "Point", "coordinates": [ 120.45563033626344, 22.700489414443815, 0.0 ] } },
{ "type": "Feature", "properties": { "ID": null }, "geometry": { "type": "Point", "coordinates": [ 120.455559833088188, 22.700427160149193, 0.0 ] } },
{ "type": "Feature", "properties": { "ID": null }, "geometry": { "type": "Point", "coordinates": [ 120.455489329039111, 22.700364896790287, 0.0 ] } },
{ "type": "Feature", "properties": { "ID": null }, "geometry": { "type": "Point", "coordinates": [ 120.455418826027156, 22.700302633404402, 0.0 ] } },
{ "type": "Feature", "properties": { "ID": null }, "geometry": { "type": "Point", "coordinates": [ 120.45534832304331, 22.700240379018869, 0.0 ] } },
{ "type": "Feature", "properties": { "ID": null }, "geometry": { "type": "Point", "coordinates": [ 120.455277819185667, 22.700178115569059, 0.0 ] } },
{ "type": "Feature", "properties": { "ID": null }, "geometry": { "type": "Point", "coordinates": [ 120.455207316329407, 22.700115861122924, 0.0 ] } },
{ "type": "Feature", "properties": { "ID": null }, "geometry": { "type": "Point", "coordinates": [ 120.455136813572679, 22.700053597615838, 0.0 ] } },
{ "type": "Feature", "properties": { "ID": null }, "geometry": { "type": "Point", "coordinates": [ 120.455066309906428, 22.699991334075122, 0.0 ] } },
{ "type": "Feature", "properties": { "ID": null }, "geometry": { "type": "Point", "coordinates": [ 120.454995807241559, 22.699929079538094, 0.0 ] } },
{ "type": "Feature", "properties": { "ID": null }, "geometry": { "type": "Point", "coordinates": [ 120.454925304676223, 22.699866815940094, 0.0 ] } },
{ "type": "Feature", "properties": { "ID": null }, "geometry": { "type": "Point", "coordinates": [ 120.454854802138968, 22.699804561342468, 0.0 ] } },
{ "type": "Feature", "properties": { "ID": null }, "geometry": { "type": "Point", "coordinates": [ 120.45478429872793, 22.699742297680555, 0.0 ] } },
{ "type": "Feature", "properties": { "ID": null }, "geometry": { "type": "Point", "coordinates": [ 120.454713796354, 22.699680033991662, 0.0 ] } },
{ "type": "Feature", "properties": { "ID": null }, "geometry": { "type": "Point", "coordinates": [ 120.454643294008108, 22.699617779303136, 0.0 ] } },
{ "type": "Feature", "properties": { "ID": null }, "geometry": { "type": "Point", "coordinates": [ 120.45457279078849, 22.699555515550333, 0.0 ] } },
{ "type": "Feature", "properties": { "ID": null }, "geometry": { "type": "Point", "coordinates": [ 120.454502288605951, 22.699493251770551, 0.0 ] } },
{ "type": "Feature", "properties": { "ID": null }, "geometry": { "type": "Point", "coordinates": [ 120.45443178645148, 22.699430996991136, 0.0 ] } },
{ "type": "Feature", "properties": { "ID": null }, "geometry": { "type": "Point", "coordinates": [ 120.454361283423225, 22.699368733147431, 0.0 ] } },
{ "type": "Feature", "properties": { "ID": null }, "geometry": { "type": "Point", "coordinates": [ 120.454290781396338, 22.699306478307417, 0.0 ] } },
{ "type": "Feature", "properties": { "ID": null }, "geometry": { "type": "Point", "coordinates": [ 120.454220279469013, 22.699244214406438, 0.0 ] } },
{ "type": "Feature", "properties": { "ID": null }, "geometry": { "type": "Point", "coordinates": [ 120.454149777605508, 22.699181950475172, 0.0 ] } },
{ "type": "Feature", "properties": { "ID": null }, "geometry": { "type": "Point", "coordinates": [ 120.454079274796683, 22.699119695540944, 0.0 ] } },
{ "type": "Feature", "properties": { "ID": null }, "geometry": { "type": "Point", "coordinates": [ 120.45400877306075, 22.699057431549083, 0.0 ] } },
{ "type": "Feature", "properties": { "ID": null }, "geometry": { "type": "Point", "coordinates": [ 120.453938271352825, 22.698995176557588, 0.0 ] } },
{ "type": "Feature", "properties": { "ID": null }, "geometry": { "type": "Point", "coordinates": [ 120.453867768771204, 22.698932912501814, 0.0 ] } },
{ "type": "Feature", "properties": { "ID": null }, "geometry": { "type": "Point", "coordinates": [ 120.453797267226662, 22.698870648419064, 0.0 ] } },
{ "type": "Feature", "properties": { "ID": null }, "geometry": { "type": "Point", "coordinates": [ 120.45372676571013, 22.698808393336684, 0.0 ] } },
{ "type": "Feature", "properties": { "ID": null }, "geometry": { "type": "Point", "coordinates": [ 120.4536562633199, 22.698746129190024, 0.0 ] } },
{ "type": "Feature", "properties": { "ID": null }, "geometry": { "type": "Point", "coordinates": [ 120.45358576196675, 22.698683865016399, 0.0 ] } },
{ "type": "Feature", "properties": { "ID": null }, "geometry": { "type": "Point", "coordinates": [ 120.453515260641595, 22.698621609843137, 0.0 ] } },
{ "type": "Feature", "properties": { "ID": null }, "geometry": { "type": "Point", "coordinates": [ 120.453444759416044, 22.698559345608913, 0.0 ] } },
{ "type": "Feature", "properties": { "ID": null }, "geometry": { "type": "Point", "coordinates": [ 120.453374257245187, 22.698497090371749, 0.0 ] } },
{ "type": "Feature", "properties": { "ID": null }, "geometry": { "type": "Point", "coordinates": [ 120.453303756147221, 22.698434826076941, 0.0 ] } },
{ "type": "Feature", "properties": { "ID": null }, "geometry": { "type": "Point", "coordinates": [ 120.453233255113076, 22.698372561751846, 0.0 ] } },
{ "type": "Feature", "properties": { "ID": null }, "geometry": { "type": "Point", "coordinates": [ 120.453162753133597, 22.698310306423789, 0.0 ] } },
{ "type": "Feature", "properties": { "ID": null }, "geometry": { "type": "Point", "coordinates": [ 120.453092252227052, 22.698248042038106, 0.0 ] } },
{ "type": "Feature", "properties": { "ID": null }, "geometry": { "type": "Point", "coordinates": [ 120.45302175138427, 22.698185777622136, 0.0 ] } },
{ "type": "Feature", "properties": { "ID": null }, "geometry": { "type": "Point", "coordinates": [ 120.45295124959614, 22.698123522203204, 0.0 ] } },
{ "type": "Feature", "properties": { "ID": null }, "geometry": { "type": "Point", "coordinates": [ 120.452880748880986, 22.69806125772665, 0.0 ] } },
{ "type": "Feature", "properties": { "ID": null }, "geometry": { "type": "Point", "coordinates": [ 120.452803587954335, 22.697993091402509, 0.0 ] } },
{ "type": "Feature", "properties": { "ID": null }, "geometry": { "type": "Point", "coordinates": [ 120.452730464364407, 22.697917091094212, 0.0 ] } },
{ "type": "Feature", "properties": { "ID": null }, "geometry": { "type": "Point", "coordinates": [ 120.452666902209955, 22.697848302932609, 0.0 ] } },
{ "type": "Feature", "properties": { "ID": null }, "geometry": { "type": "Point", "coordinates": [ 120.452606185889266, 22.69777760092293, 0.0 ] } },
{ "type": "Feature", "properties": { "ID": null }, "geometry": { "type": "Point", "coordinates": [ 120.452547676170084, 22.697705416359344, 0.0 ] } },
{ "type": "Feature", "properties": { "ID": null }, "geometry": { "type": "Point", "coordinates": [ 120.452490545472514, 22.697632306321644, 0.0 ] } },
{ "type": "Feature", "properties": { "ID": null }, "geometry": { "type": "Point", "coordinates": [ 120.452433414871066, 22.697559187233413, 0.0 ] } },
{ "type": "Feature", "properties": { "ID": null }, "geometry": { "type": "Point", "coordinates": [ 120.452376284293948, 22.697486077155979, 0.0 ] } },
{ "type": "Feature", "properties": { "ID": null }, "geometry": { "type": "Point", "coordinates": [ 120.45231915377704, 22.697412967058671, 0.0 ] } },
{ "type": "Feature", "properties": { "ID": null }, "geometry": { "type": "Point", "coordinates": [ 120.452262023356269, 22.697339847910833, 0.0 ] } },
{ "type": "Feature", "properties": { "ID": null }, "geometry": { "type": "Point", "coordinates": [ 120.453035129048999, 22.698041755182885, 0.0 ] } },
{ "type": "Feature", "properties": { "ID": null }, "geometry": { "type": "Point", "coordinates": [ 120.452964627362789, 22.697979490739403, 0.0 ] } },
{ "type": "Feature", "properties": { "ID": null }, "geometry": { "type": "Point", "coordinates": [ 120.452894199541518, 22.697917759334448, 0.0 ] } },
{ "type": "Feature", "properties": { "ID": null }, "geometry": { "type": "Point", "coordinates": [ 120.452829327640771, 22.697850583269325, 0.0 ] } },
{ "type": "Feature", "properties": { "ID": null }, "geometry": { "type": "Point", "coordinates": [ 120.452765517567528, 22.697781965883316, 0.0 ] } },
{ "type": "Feature", "properties": { "ID": null }, "geometry": { "type": "Point", "coordinates": [ 120.452704702669962, 22.697711326788518, 0.0 ] } },
{ "type": "Feature", "properties": { "ID": null }, "geometry": { "type": "Point", "coordinates": [ 120.452646174397231, 22.69763915122731, 0.0 ] } },
{ "type": "Feature", "properties": { "ID": null }, "geometry": { "type": "Point", "coordinates": [ 120.452589043673285, 22.697566041223684, 0.0 ] } },
{ "type": "Feature", "properties": { "ID": null }, "geometry": { "type": "Point", "coordinates": [ 120.452531913009537, 22.697492931200195, 0.0 ] } },
{ "type": "Feature", "properties": { "ID": null }, "geometry": { "type": "Point", "coordinates": [ 120.452474782441897, 22.697419812126167, 0.0 ] } },
{ "type": "Feature", "properties": { "ID": null }, "geometry": { "type": "Point", "coordinates": [ 120.4524176518986, 22.697346702062944, 0.0 ] } },
{ "type": "Feature", "properties": { "ID": null }, "geometry": { "type": "Point", "coordinates": [ 120.452360521415514, 22.697273591979847, 0.0 ] } }
]
}
