{
"type": "FeatureCollection",
"name": "2",
"crs": { "type": "name", "properties": { "name": "urn:ogc:def:crs:OGC:1.3:CRS84" } },
"features": [
{ "type": "Feature", "properties": { "P": 14, "N": 2510964.899, "E": 193838.853, "Z": 18.621, "layer": "0", "date": "0324" }, "geometry": { "type": "Point", "coordinates": [ 120.453365710688487, 22.698172539798048, 18.621 ] } },
{ "type": "Feature", "properties": { "P": 15, "N": 2510962.709, "E": 193827.314, "Z": 17.274, "layer": "0", "date": "0324" }, "geometry": { "type": "Point", "coordinates": [ 120.453253480357901, 22.698152378960049, 17.274 ] } },
{ "type": "Feature", "properties": { "P": 16, "N": 2510964.192, "E": 193818.286, "Z": 17.874, "layer": "0", "date": "0324" }, "geometry": { "type": "Point", "coordinates": [ 120.45316555789698, 22.698165471195722, 17.874 ] } },
{ "type": "Feature", "properties": { "P": 17, "N": 2511072.212, "E": 193926.496, "Z": 18.742, "layer": "0", "date": "0324" }, "geometry": { "type": "Point", "coordinates": [ 120.45421489862467, 22.699144559366637, 18.742 ] } },
{ "type": "Feature", "properties": { "P": 18, "N": 2511076.268, "E": 193928.478, "Z": 18.76, "layer": "0", "date": "0324" }, "geometry": { "type": "Point", "coordinates": [ 120.454234044409688, 22.699181253544417, 18.76 ] } },
{ "type": "Feature", "properties": { "P": 19, "N": 2511074.131, "E": 193931.72, "Z": 18.779, "layer": "0", "date": "0324" }, "geometry": { "type": "Point", "coordinates": [ 120.454265675409474, 22.699162062628226, 18.779 ] } },
{ "type": "Feature", "properties": { "P": 20, "N": 2511079.337, "E": 193934.466, "Z": 20.094, "layer": "0", "date": "0324" }, "geometry": { "type": "Point", "coordinates": [ 120.454292216121402, 22.699209167425572, 20.094 ] } },
{ "type": "Feature", "properties": { "P": 21, "N": 2511110.144, "E": 193966.857, "Z": 19.312, "layer": "0", "date": "0324" }, "geometry": { "type": "Point", "coordinates": [ 120.454606377950157, 22.699488449996178, 19.312 ] } },
{ "type": "Feature", "properties": { "P": 1, "N": 2511000.082, "E": 193842.307, "Z": 18.868, "layer": "1", "date": "0413" }, "geometry": { "type": "Point", "coordinates": [ 120.453398067749106, 22.698490380552123, 18.868 ] } },
{ "type": "Feature", "properties": { "P": 2, "N": 2510999.994, "E": 193841.751, "Z": 18.665, "layer": "1", "date": "0413" }, "geometry": { "type": "Point", "coordinates": [ 120.453392659354577, 22.698489567368814, 18.665 ] } },
{ "type": "Feature", "properties": { "P": 3, "N": 2510997.2, "E": 193844.414, "Z": 18.763, "layer": "1", "date": "0413" }, "geometry": { "type": "Point", "coordinates": [ 120.453418678441082, 22.698464424220568, 18.763 ] } },
{ "type": "Feature", "properties": { "P": 4, "N": 2510996.062, "E": 193840.566, "Z": 19.904, "layer": "1", "date": "0413" }, "geometry": { "type": "Point", "coordinates": [ 120.453381266643206, 22.698454019393864, 19.904 ] } },
{ "type": "Feature", "properties": { "P": 5, "N": 2510961.667, "E": 193802.204, "Z": 18.861, "layer": "1", "date": "0413" }, "geometry": { "type": "Point", "coordinates": [ 120.453009122713084, 22.698142133810485, 18.861 ] } },
{ "type": "Feature", "properties": { "P": 6, "N": 2510961.003, "E": 193818.023, "Z": 19.115, "layer": "1", "date": "0413" }, "geometry": { "type": "Point", "coordinates": [ 120.453163112437565, 22.698136663655117, 19.115 ] } },
{ "type": "Feature", "properties": { "P": 7, "N": 2510961.039, "E": 193828.48, "Z": 18.757, "layer": "1", "date": "0413" }, "geometry": { "type": "Point", "coordinates": [ 120.453264888859124, 22.698137336521658, 18.757 ] } },
{ "type": "Feature", "properties": { "P": 8, "N": 2510962.9, "E": 193828.171, "Z": 19.965, "layer": "1", "date": "0413" }, "geometry": { "type": "Point", "coordinates": [ 120.453261814672473, 22.698154132315761, 19.965 ] } },
{ "type": "Feature", "properties": { "P": 9, "N": 2510964.606, "E": 193828.433, "Z": 19.076, "layer": "1", "date": "0413" }, "geometry": { "type": "Point", "coordinates": [ 120.453264303569867, 22.698169547344335, 19.076 ] } },
{ "type": "Feature", "properties": { "P": 10, "N": 2510964.554, "E": 193873.169, "Z": 19.387, "layer": "1", "date": "0413" }, "geometry": { "type": "Point", "coordinates": [ 120.45369971989355, 22.698170564782515, 19.387 ] } },
{ "type": "Feature", "properties": { "P": 1, "N": 2511048.438, "E": 193895.512, "Z": 17.87, "layer": "2", "date": "0211" }, "geometry": { "type": "Point", "coordinates": [ 120.453914180975644, 22.698928835455185, 17.87 ] } },
{ "type": "Feature", "properties": { "P": 2, "N": 2511054.846, "E": 193903.101, "Z": 17.423, "layer": "2", "date": "0211" }, "geometry": { "type": "Point", "coordinates": [ 120.453987815586487, 22.698986956015215, 17.423 ] } },
{ "type": "Feature", "properties": { "P": 3, "N": 2511053.704, "E": 193904.897, "Z": 18.645, "layer": "2", "date": "0211" }, "geometry": { "type": "Point", "coordinates": [ 120.454005336993305, 22.698976702639637, 18.645 ] } },
{ "type": "Feature", "properties": { "P": 4, "N": 2511010.418, "E": 193854.994, "Z": 17.632, "layer": "2", "date": "0211" }, "geometry": { "type": "Point", "coordinates": [ 120.453521180045797, 22.69858414325628, 17.632 ] } },
{ "type": "Feature", "properties": { "P": 5, "N": 2510964.664, "E": 193873.206, "Z": 19.25, "layer": "2", "date": "0211" }, "geometry": { "type": "Point", "coordinates": [ 120.453700076074526, 22.698171559385241, 19.25 ] } },
{ "type": "Feature", "properties": { "P": 6, "N": 2510964.889, "E": 193884.273, "Z": 18.955, "layer": "2", "date": "0211" }, "geometry": { "type": "Point", "coordinates": [ 120.453807782881739, 22.698173958971374, 18.955 ] } },
{ "type": "Feature", "properties": { "P": 7, "N": 2510966.806, "E": 193884.08, "Z": 20.264, "layer": "2", "date": "0211" }, "geometry": { "type": "Point", "coordinates": [ 120.453805835780656, 22.698191264348033, 20.264 ] } },
{ "type": "Feature", "properties": { "P": 8, "N": 2510968.57, "E": 193928.556, "Z": 19.508, "layer": "2", "date": "0211" }, "geometry": { "type": "Point", "coordinates": [ 120.454238656667115, 22.698208671375632, 19.508 ] } },
{ "type": "Feature", "properties": { "P": 1, "N": 2511009.653, "E": 193855.877, "Z": 18.046, "layer": "3", "date": "0320" }, "geometry": { "type": "Point", "coordinates": [ 120.453529801694884, 22.698577264146117, 18.046 ] } },
{ "type": "Feature", "properties": { "P": 2, "N": 2511009.713, "E": 193855.467, "Z": 18.045, "layer": "3", "date": "0320" }, "geometry": { "type": "Point", "coordinates": [ 120.453525809013101, 22.698577792358499, 18.045 ] } },
{ "type": "Feature", "properties": { "P": 3, "N": 2511006.993, "E": 193858.17, "Z": 18.091, "layer": "3", "date": "0320" }, "geometry": { "type": "Point", "coordinates": [ 120.45355221476224, 22.698553318787475, 18.091 ] } },
{ "type": "Feature", "properties": { "P": 4, "N": 2510996.835, "E": 193844.74, "Z": 18.721, "layer": "3", "date": "0320" }, "geometry": { "type": "Point", "coordinates": [ 120.453421864476198, 22.698461138865181, 18.721 ] } },
{ "type": "Feature", "properties": { "P": 5, "N": 2510998.587, "E": 193843.431, "Z": 17.539, "layer": "3", "date": "0320" }, "geometry": { "type": "Point", "coordinates": [ 120.453409061207338, 22.698476917074526, 17.539 ] } },
{ "type": "Feature", "properties": { "P": 6, "N": 2510971.509, "E": 193815.509, "Z": 17.751, "layer": "3", "date": "0320" }, "geometry": { "type": "Point", "coordinates": [ 120.453138267123578, 22.698231456213303, 17.751 ] } },
{ "type": "Feature", "properties": { "P": 7, "N": 2510887.794, "E": 193741.949, "Z": 17.702, "layer": "3", "date": "0320" }, "geometry": { "type": "Point", "coordinates": [ 120.452425313975311, 22.697473005794457, 17.702 ] } },
{ "type": "Feature", "properties": { "P": 8, "N": 2510887.904, "E": 193741.326, "Z": 17.37, "layer": "3", "date": "0320" }, "geometry": { "type": "Point", "coordinates": [ 120.452419246414038, 22.697473978419474, 17.37 ] } },
{ "type": "Feature", "properties": { "P": 9, "N": 2510885.61, "E": 193744.482, "Z": 17.619, "layer": "3", "date": "0320" }, "geometry": { "type": "Point", "coordinates": [ 120.452450045864495, 22.697453367176756, 17.619 ] } },
{ "type": "Feature", "properties": { "P": 10, "N": 2510878.361, "E": 193736.681, "Z": 18.507, "layer": "3", "date": "0320" }, "geometry": { "type": "Point", "coordinates": [ 120.452374379533367, 22.697387644076212, 18.507 ] } },
{ "type": "Feature", "properties": { "P": 11, "N": 2510873.197, "E": 193731.201, "Z": 17.361, "layer": "3", "date": "0320" }, "geometry": { "type": "Point", "coordinates": [ 120.452321228519523, 22.6973408271915, 17.361 ] } },
{ "type": "Feature", "properties": { "P": 12, "N": 2510873.231, "E": 193731.161, "Z": 17.297, "layer": "3", "date": "0320" }, "geometry": { "type": "Point", "coordinates": [ 120.452320837982271, 22.697341132901741, 17.297 ] } },
{ "type": "Feature", "properties": { "P": 4, "N": 2511089.687, "E": 193937.527, "Z": 18.59, "layer": "4", "date": "0206" }, "geometry": { "type": "Point", "coordinates": [ 120.454321638751608, 22.699302736421199, 18.59 ] } },
{ "type": "Feature", "properties": { "P": 5, "N": 2511087.78, "E": 193938.28, "Z": 17.244, "layer": "4", "date": "0206" }, "geometry": { "type": "Point", "coordinates": [ 120.454329035961266, 22.699285539932966, 17.244 ] } },
{ "type": "Feature", "properties": { "P": 7, "N": 2511125.265, "E": 193976.957, "Z": 17.712, "layer": "4", "date": "0206" }, "geometry": { "type": "Point", "coordinates": [ 120.454704141439592, 22.699625337728882, 17.712 ] } },
{ "type": "Feature", "properties": { "P": 8, "N": 2511124.072, "E": 193977.587, "Z": 17.628, "layer": "4", "date": "0206" }, "geometry": { "type": "Point", "coordinates": [ 120.45471031592767, 22.699614585039363, 17.628 ] } },
{ "type": "Feature", "properties": { "P": 9, "N": 2511086.686, "E": 193936.414, "Z": 17.516, "layer": "4", "date": "0206" }, "geometry": { "type": "Point", "coordinates": [ 120.454310913212041, 22.699275598450075, 17.516 ] } },
{ "type": "Feature", "properties": { "P": 10, "N": 2511085.751, "E": 193937.124, "Z": 17.379, "layer": "4", "date": "0206" }, "geometry": { "type": "Point", "coordinates": [ 120.45431785712934, 22.699267178342737, 17.379 ] } },
{ "type": "Feature", "properties": { "P": 34, "N": 2511113.837, "E": 193963.554, "Z": 19.349, "layer": "5", "date": "0316" }, "geometry": { "type": "Point", "coordinates": [ 120.454574097566478, 22.699521690671659, 19.349 ] } },
{ "type": "Feature", "properties": { "P": 35, "N": 2511114.606, "E": 193963.334, "Z": 18.899, "layer": "5", "date": "0316" }, "geometry": { "type": "Point", "coordinates": [ 120.454571928793612, 22.69952862795548, 18.899 ] } },
{ "type": "Feature", "properties": { "P": 36, "N": 2511111.399, "E": 193965.905, "Z": 19.092, "layer": "5", "date": "0316" }, "geometry": { "type": "Point", "coordinates": [ 120.454597067193717, 22.699499751901069, 19.092 ] } },
{ "type": "Feature", "properties": { "P": 37, "N": 2511151.773, "E": 194003.577, "Z": 19.168, "layer": "5", "date": "0316" }, "geometry": { "type": "Point", "coordinates": [ 120.454962288928598, 22.699865605361975, 19.168 ] } },
{ "type": "Feature", "properties": { "P": 38, "N": 2511228.022, "E": 194084.055, "Z": 19.291, "layer": "5", "date": "0316" }, "geometry": { "type": "Point", "coordinates": [ 120.455742868742448, 22.700556850850209, 19.291 ] } },
{ "type": "Feature", "properties": { "P": 39, "N": 2511228.485, "E": 194083.567, "Z": 19.05, "layer": "5", "date": "0316" }, "geometry": { "type": "Point", "coordinates": [ 120.455738102445011, 22.700561015893257, 19.05 ] } },
{ "type": "Feature", "properties": { "P": 40, "N": 2511225.511, "E": 194086.395, "Z": 19.373, "layer": "5", "date": "0316" }, "geometry": { "type": "Point", "coordinates": [ 120.455765733903718, 22.700534252311556, 19.373 ] } },
{ "type": "Feature", "properties": { "P": 41, "N": 2511242.673, "E": 194099.127, "Z": 19.161, "layer": "5", "date": "0316" }, "geometry": { "type": "Point", "coordinates": [ 120.455889044144698, 22.70068965806065, 19.161 ] } },
{ "type": "Feature", "properties": { "P": 42, "N": 2511229.449, "E": 194087.384, "Z": 20.39, "layer": "5", "date": "0316" }, "geometry": { "type": "Point", "coordinates": [ 120.455775219482618, 22.700569847818581, 20.39 ] } },
{ "type": "Feature", "properties": { "P": 43, "N": 2511116.343, "E": 193968.087, "Z": 20.199, "layer": "5", "date": "0316" }, "geometry": { "type": "Point", "coordinates": [ 120.454618127995062, 22.699544471900886, 20.199 ] } }
]
}