{
"type": "FeatureCollection",
"crs": { "type": "name", "properties": { "name": "urn:ogc:def:crs:OGC:1.3:CRS84" } },
"features": [
{ "type": "Feature", "properties": { "流域": null }, "geometry": { "type": "Polygon", "coordinates": [ [ [ 121.548807923418465, 25.293259473949295 ], [ 121.451422098202045, 25.248630628416937 ], [ 121.378616455969407, 25.139501243066068 ], [ 121.24836269197796, 25.120362077299241 ], [ 121.045742400930223, 25.036261033029675 ], [ 120.906826535381498, 24.818071122920188 ], [ 120.904638035234257, 24.751647388871376 ], [ 120.780593842726731, 24.65494855480949 ], [ 120.192230167211036, 23.806301634282082 ], [ 120.142209658896874, 23.642519966261371 ], [ 120.148245949709676, 23.39421323071878 ], [ 120.035363987374978, 23.078784748034955 ], [ 120.062192459031564, 23.032955515671755 ], [ 120.171953426178078, 22.961002809367479 ], [ 120.331898980893186, 22.526340921395612 ], [ 120.621788967197162, 22.333069375224319 ], [ 120.70131250496911, 22.137993783254554 ], [ 120.704761599044616, 22.062355424539618 ], [ 120.684016184471744, 22.021427455983901 ], [ 120.719285603815166, 21.926423210199093 ], [ 120.736832136277016, 21.917251985630926 ], [ 120.761964787594067, 21.956135718241484 ], [ 120.825550619356278, 21.933726039728732 ], [ 120.861746068638126, 21.893892492077136 ], [ 120.848533610209984, 21.958282849894172 ], [ 120.851790413110464, 21.98793101171589 ], [ 120.903268157043883, 22.044192856647371 ], [ 120.900873089769064, 22.332458151919351 ], [ 121.030599195743378, 22.663673312138833 ], [ 121.199286894885716, 22.786210444275142 ], [ 121.228082477322801, 22.86692069349651 ], [ 121.406437045682949, 23.125157075635361 ], [ 121.513892244728837, 23.481539919773603 ], [ 121.568309702851053, 23.767512304286306 ], [ 121.643914376555131, 24.011464116593103 ], [ 121.615364835262369, 24.090270986715268 ], [ 121.666802903924236, 24.135020131948863 ], [ 121.667169247208477, 24.205531014266178 ], [ 121.773617761190351, 24.30517317487767 ], [ 121.796704408792081, 24.430744359167758 ], [ 121.851694457127493, 24.475406364821541 ], [ 121.873302509263809, 24.532506230777614 ], [ 121.836582910502827, 24.721753498534977 ], [ 121.818027209337131, 24.792361364234104 ], [ 121.843274446267344, 24.884183592026314 ], [ 122.003352489344152, 25.009891542323448 ], [ 121.977726607670192, 25.030497333695898 ], [ 121.938438596717347, 25.025641801059756 ], [ 121.925181451898425, 25.052290730851958 ], [ 121.919008705152351, 25.126917296236172 ], [ 121.811313829842774, 25.134698366838947 ], [ 121.728425242400462, 25.163738876624937 ], [ 121.69500535580957, 25.209879625139983 ], [ 121.650178207638007, 25.228475608615074 ], [ 121.629103882264957, 25.280677570936525 ], [ 121.548807923418465, 25.293259473949295 ] ] ] } }
]
}
