{
"type": "FeatureCollection",
"name": "wa",
"crs": { "type": "name", "properties": { "name": "urn:ogc:def:crs:OGC:1.3:CRS84" } },
"features": [
{ "type": "Feature", "properties": { "name": "區域多邊形", "point_order": "R1-R2-R3-L3-L2-L1-R1" }, "geometry": { "type": "Polygon", "coordinates": [ [ [ 120.451656799240737, 22.701671910959544 ], [ 120.449743793526068, 22.698704818319449 ], [ 120.447944088686739, 22.696472224515741 ], [ 120.450039560234345, 22.695355693335266 ], [ 120.45262063211058, 22.698280168529813 ], [ 120.452598314367435, 22.701596494725294 ], [ 120.451656799240737, 22.701671910959544 ] ] ] } }
]
}
